{
    "links": {
        "self": "http://www.neowsapp.com/rest/v1/neo/3727036?api_key=iIulBulltgU6a56xZRHN4H3l9WmuAYTsLGpBGhQ2"
    },
    "id": "3727036",
    "neo_reference_id": "3727036",
    "name": "(2015 RL35)",
    "designation": "2015 RL35",
    "nasa_jpl_url": "http://ssd.jpl.nasa.gov/sbdb.cgi?sstr=3727036",
    "absolute_magnitude_h": 26.3,
    "estimated_diameter": {
        "kilometers": {
            "estimated_diameter_min": 0.0146067964,
            "estimated_diameter_max": 0.0326617897
        },
        "meters": {
            "estimated_diameter_min": 14.6067964271,
            "estimated_diameter_max": 32.6617897446
        },
        "miles": {
            "estimated_diameter_min": 0.0090762397,
            "estimated_diameter_max": 0.020295089
        },
        "feet": {
            "estimated_diameter_min": 47.92256199,
            "estimated_diameter_max": 107.1581062656
        }
    },
    "is_potentially_hazardous_asteroid": false,
    "close_approach_data": [
        {
            "close_approach_date": "1947-10-19",
            "close_approach_date_full": "1947-Oct-19 16:25",
            "epoch_date_close_approach": -700644900000,
            "relative_velocity": {
                "kilometers_per_second": "4.4645649257",
                "kilometers_per_hour": "16072.4337326479",
                "miles_per_hour": "9986.7852823778"
            },
            "miss_distance": {
                "astronomical": "0.0652849646",
                "lunar": "25.3958512294",
                "kilometers": "9766491.647185402",
                "miles": "6068616.5040744676"
            },
            "orbiting_body": "Mars"
        },
        {
            "close_approach_date": "2013-10-04",
            "close_approach_date_full": "2013-Oct-04 11:00",
            "epoch_date_close_approach": 1380884400000,
            "relative_velocity": {
                "kilometers_per_second": "11.5855920918",
                "kilometers_per_hour": "41708.131530633",
                "miles_per_hour": "25915.8109502425"
            },
            "miss_distance": {
                "astronomical": "0.3252309692",
                "lunar": "126.5148470188",
                "kilometers": "48653860.250355604",
                "miles": "30232106.8781471752"
            },
            "orbiting_body": "Earth"
        },
        {
            "close_approach_date": "2015-09-07",
            "close_approach_date_full": "2015-Sep-07 03:58",
            "epoch_date_close_approach": 1441598280000,
            "relative_velocity": {
                "kilometers_per_second": "3.5171675095",
                "kilometers_per_hour": "12661.8030343488",
                "miles_per_hour": "7867.552002093"
            },
            "miss_distance": {
                "astronomical": "0.0692512488",
                "lunar": "26.9387357832",
                "kilometers": "10359839.315320056",
                "miles": "6437305.6487105328"
            },
            "orbiting_body": "Earth"
        },
        {
            "close_approach_date": "2017-08-04",
            "close_approach_date_full": "2017-Aug-04 05:54",
            "epoch_date_close_approach": 1501826040000,
            "relative_velocity": {
                "kilometers_per_second": "10.738698895",
                "kilometers_per_hour": "38659.316021941",
                "miles_per_hour": "24021.3955581888"
            },
            "miss_distance": {
                "astronomical": "0.2900044703",
                "lunar": "112.8117389467",
                "kilometers": "43384051.047358261",
                "miles": "26957599.2803395618"
            },
            "orbiting_body": "Earth"
        }
    ],
    "orbital_data": {
        "orbit_id": "14",
        "orbit_determination_date": "2017-04-06 08:32:08",
        "first_observation_date": "2015-09-09",
        "last_observation_date": "2015-10-11",
        "data_arc_in_days": 32,
        "observations_used": 36,
        "orbit_uncertainty": "7",
        "minimum_orbit_intersection": ".0694256",
        "jupiter_tisserand_invariant": "4.373",
        "epoch_osculation": "2459000.5",
        "eccentricity": ".3105884529408333",
        "semi_major_axis": "1.561846286902685",
        "inclination": "1.830501285684407",
        "ascending_node_longitude": "349.8285294302635",
        "orbital_period": "712.944726589278",
        "perihelion_distance": "1.076754864922195",
        "perihelion_argument": "354.9790818438147",
        "aphelion_distance": "2.046937708883174",
        "perihelion_time": "2458700.360772098941",
        "mean_anomaly": "151.5546970398285",
        "mean_motion": ".5049479806411321",
        "equinox": "J2000",
        "orbit_class": {
            "orbit_class_type": "AMO",
            "orbit_class_description": "Near-Earth asteroid orbits similar to that of 1221 Amor",
            "orbit_class_range": "1.017 AU < q (perihelion) < 1.3 AU"
        }
    },
    "is_sentry_object": false
}